start=new Date('2022-03-19T00:00:00.000Z').valueOf();
sats=[{"DECAY_DATE":null,"MEAN_MOTION_DDOT":"0.0000000000000","MEAN_ANOMALY":"291.1016","TLE_LINE1":"1 45550U 20025V   22077.49923128  .00013371  00000-0  91445-3 0  9995","CENTER_NAME":"EARTH","MEAN_MOTION_DOT":"0.00013371","LAUNCH_DATE":"2020-04-22","EPOCH":"2022-03-18T11:58:53.582592","ECCENTRICITY":"0.00013290","EPHEMERIS_TYPE":"0","REF_FRAME":"TEME","APOAPSIS":"548.090","TIME_SYSTEM":"UTC","MEAN_MOTION":"15.06414260","OBJECT_ID":"2020-025V","PERIAPSIS":"546.249","INCLINATION":"53.0536","TLE_LINE2":"2 45550  53.0536 145.7667 0001329  69.0115 291.1016 15.06414260105618","PERIOD":"95.591","SEMIMAJOR_AXIS":"6925.305","OBJECT_TYPE":"PAYLOAD","GP_ID":"199074813","FILE":"3364441","REV_AT_EPOCH":"10561","MEAN_ELEMENT_THEORY":"SGP4","BSTAR":"0.00091445000000","SITE":"AFETR","ARG_OF_PERICENTER":"69.0115","CLASSIFICATION_TYPE":"U","RA_OF_ASC_NODE":"145.7667","OBJECT_NAME":"STARLINK-1390","COUNTRY_CODE":"US","NORAD_CAT_ID":"45550","ELEMENT_SET_NO":"999","RCS_SIZE":"LARGE"},{"COUNTRY_CODE":"US","ARG_OF_PERICENTER":"63.9550","CLASSIFICATION_TYPE":"U","RA_OF_ASC_NODE":"125.1438","OBJECT_NAME":"STARLINK-1294","SITE":"AFETR","BSTAR":"0.00051168000000","RCS_SIZE":"LARGE","ELEMENT_SET_NO":"999","NORAD_CAT_ID":"45551","PERIOD":"95.592","PERIAPSIS":"546.272","OBJECT_ID":"2020-025W","INCLINATION":"53.0518","TLE_LINE2":"2 45551  53.0518 125.1438 0001384  63.9550 296.1582 15.06394379106515","MEAN_MOTION":"15.06394379","MEAN_ELEMENT_THEORY":"SGP4","REV_AT_EPOCH":"10651","OBJECT_TYPE":"PAYLOAD","GP_ID":"199100933","FILE":"3364757","SEMIMAJOR_AXIS":"6925.366","MEAN_MOTION_DOT":"0.00007347","CENTER_NAME":"EARTH","TIME_SYSTEM":"UTC","REF_FRAME":"TEME","APOAPSIS":"548.189","ECCENTRICITY":"0.00013840","EPOCH":"2022-03-18T15:14:00.461184","EPHEMERIS_TYPE":"0","LAUNCH_DATE":"2020-04-22","DECAY_DATE":null,"MEAN_ANOMALY":"296.1582","TLE_LINE1":"1 45551U 20025W   22077.63472756  .00007347  00000-0  51168-3 0  9992","MEAN_MOTION_DDOT":"0.0000000000000"},{"ECCENTRICITY":"0.00029310","EPOCH":"2022-03-18T11:58:26.691456","EPHEMERIS_TYPE":"0","LAUNCH_DATE":"2020-04-22","TIME_SYSTEM":"UTC","REF_FRAME":"TEME","APOAPSIS":"441.808","CENTER_NAME":"EARTH","MEAN_MOTION_DOT":"0.00011165","TLE_LINE1":"1 45552U 20025X   22077.49892004  .00011165  00000-0  26585-3 0  9997","MEAN_ANOMALY":"329.6106","MEAN_MOTION_DDOT":"0.0000000000000","DECAY_DATE":null,"ELEMENT_SET_NO":"999","NORAD_CAT_ID":"45552","RCS_SIZE":"LARGE","SITE":"AFETR","BSTAR":"0.00026585000000","COUNTRY_CODE":"US","ARG_OF_PERICENTER":"30.5068","RA_OF_ASC_NODE":"85.6445","CLASSIFICATION_TYPE":"U","OBJECT_NAME":"STARLINK-1322","SEMIMAJOR_AXIS":"6817.945","MEAN_ELEMENT_THEORY":"SGP4","REV_AT_EPOCH":"10645","OBJECT_TYPE":"PAYLOAD","FILE":"3364473","GP_ID":"199075051","PERIAPSIS":"437.811","OBJECT_ID":"2020-025X","INCLINATION":"53.0529","TLE_LINE2":"2 45552  53.0529  85.6445 0002931  30.5068 329.6106 15.42135512106458","MEAN_MOTION":"15.42135512","PERIOD":"93.377"},{"TIME_SYSTEM":"UTC","APOAPSIS":"548.231","REF_FRAME":"TEME","EPHEMERIS_TYPE":"0","ECCENTRICITY":"0.00015270","EPOCH":"2022-03-18T15:29:54.276576","LAUNCH_DATE":"2020-04-22","MEAN_MOTION_DOT":"0.00009427","CENTER_NAME":"EARTH","MEAN_ANOMALY":"304.1078","TLE_LINE1":"1 45553U 20025Y   22077.64576709  .00009427  00000-0  65068-3 0  9993","MEAN_MOTION_DDOT":"0.0000000000000","DECAY_DATE":null,"RCS_SIZE":"LARGE","NORAD_CAT_ID":"45553","ELEMENT_SET_NO":"999","COUNTRY_CODE":"US","CLASSIFICATION_TYPE":"U","RA_OF_ASC_NODE":"125.1007","OBJECT_NAME":"STARLINK-1323","ARG_OF_PERICENTER":"56.0055","SITE":"AFETR","BSTAR":"0.00065068000000","MEAN_ELEMENT_THEORY":"SGP4","REV_AT_EPOCH":"10522","FILE":"3364757","GP_ID":"199101922","OBJECT_TYPE":"PAYLOAD","SEMIMAJOR_AXIS":"6925.308","PERIOD":"95.591","TLE_LINE2":"2 45553  53.0511 125.1007 0001527  56.0055 304.1078 15.06413145105224","OBJECT_ID":"2020-025Y","PERIAPSIS":"546.116","INCLINATION":"53.0511","MEAN_MOTION":"15.06413145"},{"CENTER_NAME":"EARTH","MEAN_MOTION_DOT":"0.00000571","EPHEMERIS_TYPE":"0","EPOCH":"2022-03-18T10:32:39.579936","ECCENTRICITY":"0.00015630","LAUNCH_DATE":"2020-04-22","TIME_SYSTEM":"UTC","APOAPSIS":"548.336","REF_FRAME":"TEME","DECAY_DATE":null,"TLE_LINE1":"1 45554U 20025Z   22077.43934699  .00000571  00000-0  57233-4 0  9994","MEAN_ANOMALY":"300.0600","MEAN_MOTION_DDOT":"0.0000000000000","SITE":"AFETR","BSTAR":"0.00005723300000","COUNTRY_CODE":"US","RA_OF_ASC_NODE":"126.0181","CLASSIFICATION_TYPE":"U","OBJECT_NAME":"STARLINK-1325","ARG_OF_PERICENTER":"60.0544","ELEMENT_SET_NO":"999","NORAD_CAT_ID":"45554","RCS_SIZE":"LARGE","TLE_LINE2":"2 45554  53.0522 126.0181 0001563  60.0544 300.0600 15.06386901106482","INCLINATION":"53.0522","PERIAPSIS":"546.171","OBJECT_ID":"2020-025Z","MEAN_MOTION":"15.06386901","PERIOD":"95.593","SEMIMAJOR_AXIS":"6925.389","MEAN_ELEMENT_THEORY":"SGP4","REV_AT_EPOCH":"10648","FILE":"3364342","GP_ID":"199041946","OBJECT_TYPE":"PAYLOAD"},{"MEAN_MOTION_DDOT":"0.0000000000000","MEAN_ANOMALY":"297.8134","TLE_LINE1":"1 45555U 20025AA  22077.60153177  .00008312  00000-0  57618-3 0  9995","DECAY_DATE":null,"APOAPSIS":"548.333","REF_FRAME":"TEME","TIME_SYSTEM":"UTC","LAUNCH_DATE":"2020-04-22","ECCENTRICITY":"0.00016390","EPOCH":"2022-03-18T14:26:12.344928","EPHEMERIS_TYPE":"0","MEAN_MOTION_DOT":"0.00008312","CENTER_NAME":"EARTH","OBJECT_TYPE":"PAYLOAD","FILE":"3364757","GP_ID":"199101433","MEAN_ELEMENT_THEORY":"SGP4","REV_AT_EPOCH":"10650","SEMIMAJOR_AXIS":"6925.333","PERIOD":"95.592","MEAN_MOTION":"15.06405113","OBJECT_ID":"2020-025AA","PERIAPSIS":"546.063","INCLINATION":"53.0516","TLE_LINE2":"2 45555  53.0516 125.2897 0001639  62.3021 297.8134 15.06405113106505","RCS_SIZE":"LARGE","ELEMENT_SET_NO":"999","NORAD_CAT_ID":"45555","ARG_OF_PERICENTER":"62.3021","CLASSIFICATION_TYPE":"U","RA_OF_ASC_NODE":"125.2897","OBJECT_NAME":"STARLINK-1327","COUNTRY_CODE":"US","BSTAR":"0.00057618000000","SITE":"AFETR"},{"REV_AT_EPOCH":"10651","MEAN_ELEMENT_THEORY":"SGP4","FILE":"3364757","GP_ID":"199101684","OBJECT_TYPE":"PAYLOAD","SEMIMAJOR_AXIS":"6925.390","PERIOD":"95.593","TLE_LINE2":"2 45556  53.0542 125.1240 0001533  54.7934 305.3199 15.06386364106510","PERIAPSIS":"546.194","INCLINATION":"53.0542","OBJECT_ID":"2020-025AB","MEAN_MOTION":"15.06386364","RCS_SIZE":"LARGE","NORAD_CAT_ID":"45556","ELEMENT_SET_NO":"999","COUNTRY_CODE":"US","CLASSIFICATION_TYPE":"U","RA_OF_ASC_NODE":"125.1240","OBJECT_NAME":"STARLINK-1334","ARG_OF_PERICENTER":"54.7934","SITE":"AFETR","BSTAR":"0.00048404000000","TLE_LINE1":"1 45556U 20025AB  22077.64209270  .00006933  00000-0  48404-3 0  9996","MEAN_ANOMALY":"305.3199","MEAN_MOTION_DDOT":"0.0000000000000","DECAY_DATE":null,"TIME_SYSTEM":"UTC","APOAPSIS":"548.317","REF_FRAME":"TEME","EPHEMERIS_TYPE":"0","ECCENTRICITY":"0.00015330","EPOCH":"2022-03-18T15:24:36.809280","LAUNCH_DATE":"2020-04-22","MEAN_MOTION_DOT":"0.00006933","CENTER_NAME":"EARTH"},{"BSTAR":"-0.00044585000000","SITE":"AFETR","CLASSIFICATION_TYPE":"U","RA_OF_ASC_NODE":"125.0738","OBJECT_NAME":"STARLINK-1336","ARG_OF_PERICENTER":"64.6198","COUNTRY_CODE":"US","ELEMENT_SET_NO":"999","NORAD_CAT_ID":"45557","RCS_SIZE":"LARGE","MEAN_MOTION":"15.06418320","TLE_LINE2":"2 45557  53.0550 125.0738 0001268  64.6198 295.4922 15.06418320106519","OBJECT_ID":"2020-025AC","PERIAPSIS":"546.279","INCLINATION":"53.0550","PERIOD":"95.591","SEMIMAJOR_AXIS":"6925.292","GP_ID":"199102422","FILE":"3364757","OBJECT_TYPE":"PAYLOAD","REV_AT_EPOCH":"10651","MEAN_ELEMENT_THEORY":"SGP4","CENTER_NAME":"EARTH","MEAN_MOTION_DOT":"-0.00006919","LAUNCH_DATE":"2020-04-22","EPHEMERIS_TYPE":"0","EPOCH":"2022-03-18T15:35:11.157216","ECCENTRICITY":"0.00012680","REF_FRAME":"TEME","APOAPSIS":"548.036","TIME_SYSTEM":"UTC","DECAY_DATE":null,"MEAN_MOTION_DDOT":"0.0000000000000","TLE_LINE1":"1 45557U 20025AC  22077.64943469 -.00006919  00000-0 -44585-3 0  9994","MEAN_ANOMALY":"295.4922"},{"SEMIMAJOR_AXIS":"6925.378","MEAN_ELEMENT_THEORY":"SGP4","REV_AT_EPOCH":"10646","OBJECT_TYPE":"PAYLOAD","GP_ID":"199042446","FILE":"3364342","OBJECT_ID":"2020-025AD","PERIAPSIS":"546.362","INCLINATION":"53.0541","TLE_LINE2":"2 45558  53.0541 126.4277 0001271  76.4790 283.6341 15.06390503106466","MEAN_MOTION":"15.06390503","PERIOD":"95.593","ELEMENT_SET_NO":"999","NORAD_CAT_ID":"45558","RCS_SIZE":"LARGE","SITE":"AFETR","BSTAR":"-0.00003008300000","COUNTRY_CODE":"US","ARG_OF_PERICENTER":"76.4790","CLASSIFICATION_TYPE":"U","RA_OF_ASC_NODE":"126.4277","OBJECT_NAME":"STARLINK-1342","MEAN_ANOMALY":"283.6341","TLE_LINE1":"1 45558U 20025AD  22077.35087728 -.00000729  00000-0 -30083-4 0  9992","MEAN_MOTION_DDOT":"0.0000000000000","DECAY_DATE":null,"ECCENTRICITY":"0.00012710","EPOCH":"2022-03-18T08:25:15.796992","EPHEMERIS_TYPE":"0","LAUNCH_DATE":"2020-04-22","TIME_SYSTEM":"UTC","REF_FRAME":"TEME","APOAPSIS":"548.123","CENTER_NAME":"EARTH","MEAN_MOTION_DOT":"-0.00000729"},{"TIME_SYSTEM":"UTC","REF_FRAME":"TEME","APOAPSIS":"548.408","EPHEMERIS_TYPE":"0","ECCENTRICITY":"0.00017080","EPOCH":"2022-03-18T15:40:30.108864","LAUNCH_DATE":"2020-04-22","MEAN_MOTION_DOT":"0.00001822","CENTER_NAME":"EARTH","TLE_LINE1":"1 45559U 20025AE  22077.65312626  .00001822  00000-0  14123-3 0  9993","MEAN_ANOMALY":"301.8813","MEAN_MOTION_DDOT":"0.0000000000000","DECAY_DATE":null,"RCS_SIZE":"LARGE","NORAD_CAT_ID":"45559","ELEMENT_SET_NO":"999","COUNTRY_CODE":"US","RA_OF_ASC_NODE":"125.0553","CLASSIFICATION_TYPE":"U","OBJECT_NAME":"STARLINK-1344","ARG_OF_PERICENTER":"58.2342","SITE":"AFETR","BSTAR":"0.00014123000000","REV_AT_EPOCH":"10651","MEAN_ELEMENT_THEORY":"SGP4","FILE":"3364757","GP_ID":"199100934","OBJECT_TYPE":"PAYLOAD","SEMIMAJOR_AXIS":"6925.360","PERIOD":"95.592","TLE_LINE2":"2 45559  53.0527 125.0553 0001708  58.2342 301.8813 15.06396189106518","OBJECT_ID":"2020-025AE","PERIAPSIS":"546.042","INCLINATION":"53.0527","MEAN_MOTION":"15.06396189"}];
